[
  {"suburb": "Parramatta", "state": "NSW", "postcode": "2150"},
  {"suburb": "Parramatta West", "state": "NSW", "postcode": "2150"},
  {"suburb": "North Parramatta", "state": "NSW", "postcode": "2151"},
  {"suburb": "Sydney", "state": "NSW", "postcode": "2000"},
  {"suburb": "Sydney CBD", "state": "NSW", "postcode": "2000"},
  {"suburb": "Melbourne", "state": "VIC", "postcode": "3000"},
  {"suburb": "Melbourne CBD", "state": "VIC", "postcode": "3000"},
  {"suburb": "Brisbane", "state": "QLD", "postcode": "4000"},
  {"suburb": "Brisbane City", "state": "QLD", "postcode": "4000"},
  {"suburb": "Bondi", "state": "NSW", "postcode": "2026"},
  {"suburb": "Bondi Beach", "state": "NSW", "postcode": "2026"},
  {"suburb": "Bondi Junction", "state": "NSW", "postcode": "2022"},
  {"suburb": "North Bondi", "state": "NSW", "postcode": "2026"},
  {"suburb": "North Sydney", "state": "NSW", "postcode": "2060"},
  {"suburb": "South Sydney", "state": "NSW", "postcode": "2000"},
  {"suburb": "South Melbourne", "state": "VIC", "postcode": "3205"},
  {"suburb": "Perth", "state": "WA", "postcode": "6000"},
  {"suburb": "Adelaide", "state": "SA", "postcode": "5000"},
  {"suburb": "Canberra", "state": "ACT", "postcode": "2600"},
  {"suburb": "Darwin", "state": "NT", "postcode": "0800"},
  {"suburb": "Hobart", "state": "TAS", "postcode": "7000"},
  {"suburb": "Surry Hills", "state": "NSW", "postcode": "2010"},
  {"suburb": "Paddington", "state": "NSW", "postcode": "2021"},
  {"suburb": "Newtown", "state": "NSW", "postcode": "2042"},
  {"suburb": "Redfern", "state": "NSW", "postcode": "2016"},
  {"suburb": "Manly", "state": "NSW", "postcode": "2095"},
  {"suburb": "Chatswood", "state": "NSW", "postcode": "2067"},
  {"suburb": "St Leonards", "state": "NSW", "postcode": "2065"},
  {"suburb": "Lane Cove", "state": "NSW", "postcode": "2066"},
  {"suburb": "Macquarie Park", "state": "NSW", "postcode": "2113"},
  {"suburb": "North Ryde", "state": "NSW", "postcode": "2113"},
  {"suburb": "Ryde", "state": "NSW", "postcode": "2112"},
  {"suburb": "Pymble", "state": "NSW", "postcode": "2073"},
  {"suburb": "Hornsby", "state": "NSW", "postcode": "2077"},
  {"suburb": "Penrith", "state": "NSW", "postcode": "2750"},
  {"suburb": "Blacktown", "state": "NSW", "postcode": "2148"},
  {"suburb": "Castle Hill", "state": "NSW", "postcode": "2154"},
  {"suburb": "Richmond", "state": "VIC", "postcode": "3121"},
  {"suburb": "Richmond", "state": "NSW", "postcode": "2753"},
  {"suburb": "Fitzroy", "state": "VIC", "postcode": "3065"},
  {"suburb": "Carlton", "state": "VIC", "postcode": "3053"},
  {"suburb": "St Kilda", "state": "VIC", "postcode": "3182"},
  {"suburb": "Brunswick", "state": "VIC", "postcode": "3056"},
  {"suburb": "Footscray", "state": "VIC", "postcode": "3011"},
  {"suburb": "Box Hill", "state": "VIC", "postcode": "3128"},
  {"suburb": "Glen Waverley", "state": "VIC", "postcode": "3150"},
  {"suburb": "Dandenong", "state": "VIC", "postcode": "3175"},
  {"suburb": "Frankston", "state": "VIC", "postcode": "3199"},
  {"suburb": "Geelong", "state": "VIC", "postcode": "3220"},
  {"suburb": "Ballarat", "state": "VIC", "postcode": "3350"},
  {"suburb": "Bendigo", "state": "VIC", "postcode": "3550"},
  {"suburb": "Fortitude Valley", "state": "QLD", "postcode": "4006"},
  {"suburb": "South Bank", "state": "QLD", "postcode": "4101"},
  {"suburb": "Gold Coast", "state": "QLD", "postcode": "4217"},
  {"suburb": "Surfers Paradise", "state": "QLD", "postcode": "4217"},
  {"suburb": "Cairns", "state": "QLD", "postcode": "4870"},
  {"suburb": "Townsville", "state": "QLD", "postcode": "4810"},
  {"suburb": "Toowoomba", "state": "QLD", "postcode": "4350"},
  {"suburb": "Fremantle", "state": "WA", "postcode": "6160"},
  {"suburb": "Joondalup", "state": "WA", "postcode": "6027"},
  {"suburb": "Subiaco", "state": "WA", "postcode": "6008"},
  {"suburb": "Bankstown", "state": "NSW", "postcode": "2200"},
  {"suburb": "Liverpool", "state": "NSW", "postcode": "2170"},
  {"suburb": "Campbelltown", "state": "NSW", "postcode": "2560"},
  {"suburb": "Penrith", "state": "NSW", "postcode": "2750"},
  {"suburb": "Hurstville", "state": "NSW", "postcode": "2220"},
  {"suburb": "Kogarah", "state": "NSW", "postcode": "2217"},
  {"suburb": "Miranda", "state": "NSW", "postcode": "2228"},
  {"suburb": "Cronulla", "state": "NSW", "postcode": "2230"},
  {"suburb": "Strathfield", "state": "NSW", "postcode": "2135"},
  {"suburb": "Burwood", "state": "NSW", "postcode": "2134"},
  {"suburb": "Ashfield", "state": "NSW", "postcode": "2131"},
  {"suburb": "Epping", "state": "NSW", "postcode": "2121"},
  {"suburb": "Eastwood", "state": "NSW", "postcode": "2122"},
  {"suburb": "Carlingford", "state": "NSW", "postcode": "2118"},
  {"suburb": "Dee Why", "state": "NSW", "postcode": "2099"},
  {"suburb": "Mona Vale", "state": "NSW", "postcode": "2103"},
  {"suburb": "Mosman", "state": "NSW", "postcode": "2088"},
  {"suburb": "Neutral Bay", "state": "NSW", "postcode": "2089"},
  {"suburb": "Crows Nest", "state": "NSW", "postcode": "2065"},
  {"suburb": "Artarmon", "state": "NSW", "postcode": "2064"},
  {"suburb": "Willoughby", "state": "NSW", "postcode": "2068"},
  {"suburb": "Gordon", "state": "NSW", "postcode": "2072"},
  {"suburb": "Turramurra", "state": "NSW", "postcode": "2074"},
  {"suburb": "Wahroonga", "state": "NSW", "postcode": "2076"},
  {"suburb": "Westmead", "state": "NSW", "postcode": "2145"},
  {"suburb": "Auburn", "state": "NSW", "postcode": "2144"},
  {"suburb": "Lidcombe", "state": "NSW", "postcode": "2141"},
  {"suburb": "Strathfield", "state": "NSW", "postcode": "2135"},
  {"suburb": "Homebush", "state": "NSW", "postcode": "2140"},
  {"suburb": "Rhodes", "state": "NSW", "postcode": "2138"},
  {"suburb": "Concord", "state": "NSW", "postcode": "2137"},
  {"suburb": "Drummoyne", "state": "NSW", "postcode": "2047"},
  {"suburb": "Balmain", "state": "NSW", "postcode": "2041"},
  {"suburb": "Rozelle", "state": "NSW", "postcode": "2039"},
  {"suburb": "Leichhardt", "state": "NSW", "postcode": "2040"},
  {"suburb": "Glebe", "state": "NSW", "postcode": "2037"},
  {"suburb": "Pyrmont", "state": "NSW", "postcode": "2009"},
  {"suburb": "Ultimo", "state": "NSW", "postcode": "2007"},
  {"suburb": "Darlinghurst", "state": "NSW", "postcode": "2010"},
  {"suburb": "Potts Point", "state": "NSW", "postcode": "2011"},
  {"suburb": "Kings Cross", "state": "NSW", "postcode": "2011"},
  {"suburb": "Woolloomooloo", "state": "NSW", "postcode": "2011"},
  {"suburb": "Randwick", "state": "NSW", "postcode": "2031"},
  {"suburb": "Kensington", "state": "NSW", "postcode": "2033"},
  {"suburb": "Kingsford", "state": "NSW", "postcode": "2032"},
  {"suburb": "Maroubra", "state": "NSW", "postcode": "2035"},
  {"suburb": "Coogee", "state": "NSW", "postcode": "2034"},
  {"suburb": "Bronte", "state": "NSW", "postcode": "2024"},
  {"suburb": "Waverley", "state": "NSW", "postcode": "2024"},
  {"suburb": "Double Bay", "state": "NSW", "postcode": "2028"},
  {"suburb": "Rose Bay", "state": "NSW", "postcode": "2029"},
  {"suburb": "Vaucluse", "state": "NSW", "postcode": "2030"},
  {"suburb": "Watsons Bay", "state": "NSW", "postcode": "2030"}
]
